[{"OBJECT_NAME":"STARLINK-1470","OBJECT_ID":"2020-038AU","EPOCH":"2026-03-09T14:36:51.476832","MEAN_MOTION":15.2807486,"ECCENTRICITY":0.0002444,"INCLINATION":53.048,"RA_OF_ASC_NODE":174.6971,"ARG_OF_PERICENTER":12.8687,"MEAN_ANOMALY":347.2373,"EPHEMERIS_TYPE":0,"CLASSIFICATION_TYPE":"U","NORAD_CAT_ID":45772,"ELEMENT_SET_NO":999,"REV_AT_EPOCH":31706,"BSTAR":0.0019687,"MEAN_MOTION_DOT":0.00054678,"MEAN_MOTION_DDOT":0},{"OBJECT_NAME":"STARLINK-31080","OBJECT_ID":"2023-200Q","EPOCH":"2026-03-09T22:00:01.999584","MEAN_MOTION":15.2671397,"ECCENTRICITY":0.00015386,"INCLINATION":43.0006,"RA_OF_ASC_NODE":167.0599,"ARG_OF_PERICENTER":271.8897,"MEAN_ANOMALY":7.4412,"EPHEMERIS_TYPE":0,"CLASSIFICATION_TYPE":"U","NORAD_CAT_ID":58603,"ELEMENT_SET_NO":999,"REV_AT_EPOCH":578,"BSTAR":7.089595e-5,"MEAN_MOTION_DOT":1.641e-5,"MEAN_MOTION_DDOT":0}]
